[{"OBJECT_NAME":"HAIYANG-1B","OBJECT_ID":"2007-010A","EPOCH":"2026-02-01T22:01:16.559328","MEAN_MOTION":14.30986843,"ECCENTRICITY":0.00124171,"INCLINATION":98.3373,"RA_OF_ASC_NODE":20.0975,"ARG_OF_PERICENTER":240.3488,"MEAN_ANOMALY":119.646,"EPHEMERIS_TYPE":0,"CLASSIFICATION_TYPE":"U","NORAD_CAT_ID":31113,"ELEMENT_SET_NO":999,"REV_AT_EPOCH":98128,"BSTAR":5.9686557e-5,"MEAN_MOTION_DOT":1.15e-6,"MEAN_MOTION_DDOT":0},{"OBJECT_NAME":"COSMO-SKYMED 1","OBJECT_ID":"2007-023A","EPOCH":"2026-02-01T22:57:19.376064","MEAN_MOTION":14.9624513,"ECCENTRICITY":0.00014136,"INCLINATION":97.8856,"RA_OF_ASC_NODE":223.7114,"ARG_OF_PERICENTER":79.2423,"MEAN_ANOMALY":280.8957,"EPHEMERIS_TYPE":0,"CLASSIFICATION_TYPE":"U","NORAD_CAT_ID":31598,"ELEMENT_SET_NO":999,"REV_AT_EPOCH":956,"BSTAR":0.0002732907,"MEAN_MOTION_DOT":3.025e-5,"MEAN_MOTION_DDOT":0},{"OBJECT_NAME":"TERRASAR-X","OBJECT_ID":"2007-026A","EPOCH":"2026-02-01T13:39:15.631488","MEAN_MOTION":15.1915171,"ECCENTRICITY":0.00018908,"INCLINATION":97.4464,"RA_OF_ASC_NODE":42.2088,"ARG_OF_PERICENTER":97.9899,"MEAN_ANOMALY":262.1551,"EPHEMERIS_TYPE":0,"CLASSIFICATION_TYPE":"U","NORAD_CAT_ID":31698,"ELEMENT_SET_NO":999,"REV_AT_EPOCH":3263,"BSTAR":6.8330573e-5,"MEAN_MOTION_DOT":1.368e-5,"MEAN_MOTION_DDOT":0},{"OBJECT_NAME":"WORLDVIEW-1 (WV-1)","OBJECT_ID":"2007-041A","EPOCH":"2026-02-01T22:08:25.699488","MEAN_MOTION":15.23855992,"ECCENTRICITY":0.00010258,"INCLINATION":97.3809,"RA_OF_ASC_NODE":154.6432,"ARG_OF_PERICENTER":288.1854,"MEAN_ANOMALY":71.9271,"EPHEMERIS_TYPE":0,"CLASSIFICATION_TYPE":"U","NORAD_CAT_ID":32060,"ELEMENT_SET_NO":999,"REV_AT_EPOCH":2227,"BSTAR":0.00030952673,"MEAN_MOTION_DOT":7.396e-5,"MEAN_MOTION_DDOT":0},{"OBJECT_NAME":"YAOGAN-3","OBJECT_ID":"2007-055A","EPOCH":"2026-02-01T23:43:46.517376","MEAN_MOTION":14.90170246,"ECCENTRICITY":0.00016544,"INCLINATION":97.832,"RA_OF_ASC_NODE":64.1485,"ARG_OF_PERICENTER":99.0497,"MEAN_ANOMALY":261.0908,"EPHEMERIS_TYPE":0,"CLASSIFICATION_TYPE":"U","NORAD_CAT_ID":32289,"ELEMENT_SET_NO":999,"REV_AT_EPOCH":98572,"BSTAR":0.00018739195,"MEAN_MOTION_DOT":1.759e-5,"MEAN_MOTION_DDOT":0},{"OBJECT_NAME":"COSMO-SKYMED 2","OBJECT_ID":"2007-059A","EPOCH":"2026-02-01T22:29:53.348928","MEAN_MOTION":14.82113932,"ECCENTRICITY":0.00015298,"INCLINATION":97.8837,"RA_OF_ASC_NODE":218.496,"ARG_OF_PERICENTER":80.7302,"MEAN_ANOMALY":279.4084,"EPHEMERIS_TYPE":0,"CLASSIFICATION_TYPE":"U","NORAD_CAT_ID":32376,"ELEMENT_SET_NO":999,"REV_AT_EPOCH":98196,"BSTAR":8.2800724e-5,"MEAN_MOTION_DOT":6.06e-6,"MEAN_MOTION_DDOT":0},{"OBJECT_NAME":"RADARSAT-2","OBJECT_ID":"2007-061A","EPOCH":"2026-02-01T23:51:21.223296","MEAN_MOTION":14.29980637,"ECCENTRICITY":0.00011296,"INCLINATION":98.5802,"RA_OF_ASC_NODE":41.8418,"ARG_OF_PERICENTER":87.1627,"MEAN_ANOMALY":272.9685,"EPHEMERIS_TYPE":0,"CLASSIFICATION_TYPE":"U","NORAD_CAT_ID":32382,"ELEMENT_SET_NO":999,"REV_AT_EPOCH":94663,"BSTAR":5.2529622e-5,"MEAN_MOTION_DOT":9.2e-7,"MEAN_MOTION_DDOT":0},{"OBJECT_NAME":"CARTOSAT-2A","OBJECT_ID":"2008-021A","EPOCH":"2026-02-01T22:53:04.565184","MEAN_MOTION":14.7902906,"ECCENTRICITY":0.00115564,"INCLINATION":97.7855,"RA_OF_ASC_NODE":86.1587,"ARG_OF_PERICENTER":184.2953,"MEAN_ANOMALY":175.8161,"EPHEMERIS_TYPE":0,"CLASSIFICATION_TYPE":"U","NORAD_CAT_ID":32783,"ELEMENT_SET_NO":999,"REV_AT_EPOCH":95881,"BSTAR":5.2155959e-5,"MEAN_MOTION_DOT":3.36e-6,"MEAN_MOTION_DDOT":0},{"OBJECT_NAME":"HUANJING 1A (HJ-1A)","OBJECT_ID":"2008-041A","EPOCH":"2026-02-01T22:59:40.557984","MEAN_MOTION":14.8359574,"ECCENTRICITY":0.0017935,"INCLINATION":97.658,"RA_OF_ASC_NODE":24.1374,"ARG_OF_PERICENTER":219.3325,"MEAN_ANOMALY":140.6588,"EPHEMERIS_TYPE":0,"CLASSIFICATION_TYPE":"U","NORAD_CAT_ID":33320,"ELEMENT_SET_NO":999,"REV_AT_EPOCH":93835,"BSTAR":0.00014736477,"MEAN_MOTION_DOT":1.167e-5,"MEAN_MOTION_DDOT":0},{"OBJECT_NAME":"HUANJING 1B (HJ-1B)","OBJECT_ID":"2008-041B","EPOCH":"2026-02-01T22:29:00.872160","MEAN_MOTION":14.83002146,"ECCENTRICITY":0.00349989,"INCLINATION":97.6431,"RA_OF_ASC_NODE":27.6777,"ARG_OF_PERICENTER":267.5041,"MEAN_ANOMALY":92.2166,"EPHEMERIS_TYPE":0,"CLASSIFICATION_TYPE":"U","NORAD_CAT_ID":33321,"ELEMENT_SET_NO":999,"REV_AT_EPOCH":93836,"BSTAR":0.00020288826,"MEAN_MOTION_DOT":1.614e-5,"MEAN_MOTION_DDOT":0},{"OBJECT_NAME":"GEOEYE 1","OBJECT_ID":"2008-042A","EPOCH":"2026-02-01T21:23:07.515744","MEAN_MOTION":14.64717942,"ECCENTRICITY":0.00048417,"INCLINATION":98.1276,"RA_OF_ASC_NODE":108.5294,"ARG_OF_PERICENTER":115.1821,"MEAN_ANOMALY":244.9885,"EPHEMERIS_TYPE":0,"CLASSIFICATION_TYPE":"U","NORAD_CAT_ID":33331,"ELEMENT_SET_NO":999,"REV_AT_EPOCH":93034,"BSTAR":0.00011518198,"MEAN_MOTION_DOT":5.66e-6,"MEAN_MOTION_DDOT":0},{"OBJECT_NAME":"THEOS","OBJECT_ID":"2008-049A","EPOCH":"2026-02-01T21:41:51.833760","MEAN_MOTION":14.20109038,"ECCENTRICITY":0.00011708,"INCLINATION":98.5789,"RA_OF_ASC_NODE":94.4653,"ARG_OF_PERICENTER":83.9766,"MEAN_ANOMALY":276.1544,"EPHEMERIS_TYPE":0,"CLASSIFICATION_TYPE":"U","NORAD_CAT_ID":33396,"ELEMENT_SET_NO":999,"REV_AT_EPOCH":89876,"BSTAR":-6.9423712e-5,"MEAN_MOTION_DOT":-1.9e-6,"MEAN_MOTION_DDOT":0},{"OBJECT_NAME":"COSMO-SKYMED 3","OBJECT_ID":"2008-054A","EPOCH":"2026-02-01T21:48:42.530112","MEAN_MOTION":15.05907689,"ECCENTRICITY":0.00165165,"INCLINATION":97.8451,"RA_OF_ASC_NODE":249.1755,"ARG_OF_PERICENTER":10.6874,"MEAN_ANOMALY":349.47,"EPHEMERIS_TYPE":0,"CLASSIFICATION_TYPE":"U","NORAD_CAT_ID":33412,"ELEMENT_SET_NO":999,"REV_AT_EPOCH":93657,"BSTAR":0.00024657121,"MEAN_MOTION_DOT":3.529e-5,"MEAN_MOTION_DDOT":0},{"OBJECT_NAME":"YAOGAN-4","OBJECT_ID":"2008-061A","EPOCH":"2026-02-01T19:44:59.584704","MEAN_MOTION":14.82866312,"ECCENTRICITY":0.00150576,"INCLINATION":97.9224,"RA_OF_ASC_NODE":327.4392,"ARG_OF_PERICENTER":146.5803,"MEAN_ANOMALY":213.6364,"EPHEMERIS_TYPE":0,"CLASSIFICATION_TYPE":"U","NORAD_CAT_ID":33446,"ELEMENT_SET_NO":999,"REV_AT_EPOCH":92560,"BSTAR":0.00016891375,"MEAN_MOTION_DOT":1.317e-5,"MEAN_MOTION_DDOT":0},{"OBJECT_NAME":"GOSAT (IBUKI)","OBJECT_ID":"2009-002A","EPOCH":"2026-02-01T06:02:21.592320","MEAN_MOTION":14.67549517,"ECCENTRICITY":0.00015122,"INCLINATION":98.0762,"RA_OF_ASC_NODE":145.1525,"ARG_OF_PERICENTER":98.6686,"MEAN_ANOMALY":261.469,"EPHEMERIS_TYPE":0,"CLASSIFICATION_TYPE":"U","NORAD_CAT_ID":33492,"ELEMENT_SET_NO":999,"REV_AT_EPOCH":91152,"BSTAR":0.00018176671,"MEAN_MOTION_DOT":9.83e-6,"MEAN_MOTION_DDOT":0},{"OBJECT_NAME":"DEIMOS-1","OBJECT_ID":"2009-041A","EPOCH":"2026-02-01T23:59:34.238976","MEAN_MOTION":14.75051809,"ECCENTRICITY":1.137e-5,"INCLINATION":97.7187,"RA_OF_ASC_NODE":196.2333,"ARG_OF_PERICENTER":48.82,"MEAN_ANOMALY":311.302,"EPHEMERIS_TYPE":0,"CLASSIFICATION_TYPE":"U","NORAD_CAT_ID":35681,"ELEMENT_SET_NO":999,"REV_AT_EPOCH":88695,"BSTAR":9.2507929e-5,"MEAN_MOTION_DOT":5.76e-6,"MEAN_MOTION_DDOT":0}]
