HAIYANG-1B              
1 31113U 07010A   26032.91755277  .00000115  00000+0  59687-4 0  9998
2 31113  98.3373  20.0975 0012417 240.3488 119.6460 14.30986843981282
COSMO-SKYMED 1          
1 31598U 07023A   26032.95647426  .00003025  00000+0  27329-3 0  9999
2 31598  97.8856 223.7114 0001413  79.2423 280.8957 14.96245130  9561
TERRASAR-X              
1 31698U 07026A   26032.56893092  .00001368  00000+0  68331-4 0  9999
2 31698  97.4464  42.2088 0001890  97.9899 262.1551 15.19151710 32633
WORLDVIEW-1 (WV-1)      
1 32060U 07041A   26032.92251967  .00007396  00000+0  30953-3 0  9994
2 32060  97.3809 154.6432 0001025 288.1854  71.9271 15.23855992 22277
YAOGAN-3                
1 32289U 07055A   26032.98873284  .00001759  00000+0  18739-3 0  9995
2 32289  97.8320  64.1485 0001654  99.0497 261.0908 14.90170246985728
COSMO-SKYMED 2          
1 32376U 07059A   26032.93742302  .00000606  00000+0  82801-4 0  9999
2 32376  97.8837 218.4960 0001529  80.7302 279.4084 14.82113932981963
RADARSAT-2              
1 32382U 07061A   26032.99399564  .00000092  00000+0  52530-4 0  9998
2 32382  98.5802  41.8418 0001129  87.1627 272.9685 14.29980637946638
CARTOSAT-2A             
1 32783U 08021A   26032.95352506  .00000336  00000+0  52156-4 0  9996
2 32783  97.7855  86.1587 0011556 184.2953 175.8161 14.79029060958819
HUANJING 1A (HJ-1A)     
1 33320U 08041A   26032.95810831  .00001167  00000+0  14736-3 0  9990
2 33320  97.6580  24.1374 0017935 219.3325 140.6588 14.83595740938355
HUANJING 1B (HJ-1B)     
1 33321U 08041B   26032.93681565  .00001614  00000+0  20289-3 0  9996
2 33321  97.6431  27.6777 0034998 267.5041  92.2166 14.83002146938362
GEOEYE 1                
1 33331U 08042A   26032.89105921  .00000566  00000+0  11518-3 0  9990
2 33331  98.1276 108.5294 0004841 115.1821 244.9885 14.64717942930347
THEOS                   
1 33396U 08049A   26032.90407215 -.00000190  00000+0 -69424-4 0  9996
2 33396  98.5789  94.4653 0001170  83.9766 276.1544 14.20109038898766
COSMO-SKYMED 3          
1 33412U 08054A   26032.90882558  .00003529  00000+0  24657-3 0  9993
2 33412  97.8451 249.1755 0016516  10.6874 349.4700 15.05907689936574
YAOGAN-4                
1 33446U 08061A   26032.82291186  .00001317  00000+0  16891-3 0  9994
2 33446  97.9224 327.4392 0015057 146.5803 213.6364 14.82866312925608
GOSAT (IBUKI)           
1 33492U 09002A   26032.25163880  .00000983  00000+0  18177-3 0  9994
2 33492  98.0762 145.1525 0001512  98.6686 261.4690 14.67549517911525
DEIMOS-1                
1 35681U 09041A   26032.99970184  .00000576  00000+0  92508-4 0  9992
2 35681  97.7187 196.2333 0000113  48.8200 311.3020 14.75051809886954
